ES'HAIL 2               
1 43700U 18090A   26064.51699441  .00000137  00000+0  00000+0 0  9998
2 43700   0.0102 207.4790 0002702 172.6625 355.0003  1.00272028 26633
GEO-KOMPSAT-2A          
1 43823U 18100A   26063.26502859  .00000000  00000+0  00000+0 0  9992
2 43823   0.0084  82.1864 0001750 326.5345 336.9688  1.00267019 26573
GSAT-11                 
1 43824U 18100B   26065.16834163 -.00000082  00000+0  00000+0 0  9991
2 43824   0.0815 270.9937 0005161 145.3671 242.1153  1.00272043 26447
GSAT-7A                 
1 43864U 18105A   26065.22267013  .00000022  00000+0  00000+0 0  9994
2 43864   0.0948 277.9826 0001957  59.9277 328.9185  1.00271714 26412
COSMOS 2533             
1 43867U 18107A   26065.16756163 -.00000044  00000+0  00000+0 0  9996
2 43867   0.0169 119.3697 0000357 355.7587 179.0814  1.00273127 26402
TJS-3                   
1 43874U 18110A   26064.73329492 -.00000227  00000+0  00000+0 0  9994
2 43874   2.2781  81.7709 0016970 345.1463  87.7820  1.00349408 26389
ZHONGXING-2D            
1 43920U 19001A   26065.32208898 -.00000342  00000+0  00000+0 0  9996
2 43920   0.0515 299.0722 0001018   1.7525 109.1842  1.00271175 53043
HELLAS-SAT 4 & SGS-1    
1 44034U 19007A   26064.87621599  .00000146  00000+0  00000+0 0  9996
2 44034   0.0671 126.1395 0002909  22.2320   9.6779  1.00272745 26339
GSAT-31                 
1 44035U 19007B   26065.24350596  .00000120  00000+0  00000+0 0  9997
2 44035   0.0299 257.6855 0004489  49.5822 352.2097  1.00271534 25931
NUSANTARA SATU          
1 44048U 19009A   26063.52197821 -.00000246  00000+0  00000+0 0  9992
2 44048   0.0283 131.5344 0001530 315.9846  48.6457  1.00271077 25726
ZHONGXING-6C            
1 44067U 19012A   26065.32217565 -.00000340  00000+0  00000+0 0  9990
2 44067   0.0483  61.5467 0008811 329.3667  19.5097  1.00269750 25706
WGS 10 (USA 291)        
1 44071U 19014A   26065.16565495  .00000042  00000+0  00000+0 0  9995
2 44071   0.0189 136.1963 0000499 249.1762 258.4322  1.00271096 25580
TIANLIAN 2-01           
1 44076U 19017A   26065.16894830 -.00000111  00000+0  00000+0 0  9999
2 44076   0.2746  82.3895 0003205 224.1556 355.1698  1.00271692 25611
ARABSAT-6A              
1 44186U 19021A   26065.15976160  .00000000  00000+0  00000+0 0  9998
2 44186   0.0196  15.7621 0003229 314.7825 281.3494  1.00268858 25128
BEIDOU-3 IGSO-1         
1 44204U 19023A   26065.32000897 -.00000207  00000+0  00000+0 0  9995
2 44204  58.5566  38.7058 0025979 236.3832 123.2959  1.00270546  6171
BEIDOU-2 G8             
1 44231U 19027A   26065.25370867 -.00000252  00000+0  00000+0 0  9998
2 44231   1.3977  74.2506 0011610 271.2833  54.1869  1.00275795 25042
YAMAL 601               
1 44307U 19031A   26065.23472859  .00000115  00000+0  00000+0 0  9996
2 44307   0.0151 164.1225 0002556 186.0448 307.2810  1.00273430 24880
